H1 CPF 01  gfz 2021 09 27 00  7701 tandemx   
H2 1003001  6202 36605    2021 09 27 00 59 42 2021 10 02 00 00 42   120 1 1  0 0 0
H9
10 0 59487  42462.000000  0    -454118.085  -4242257.215  -5416003.706
10 0 59487  42582.000000  0    -595656.591  -3485977.366  -5918855.717
10 0 59487  42702.000000  0    -713078.023  -2666966.568  -6318311.480
10 0 59487  42822.000000  0    -803385.890  -1799915.883  -6607480.069
10 0 59487  42942.000000  0    -864318.164   -900365.578  -6781382.566
10 0 59487  43062.000000  0    -894396.941     15570.386  -6837029.170
10 0 59487  43182.000000  0    -892959.801    931487.728  -6773464.013
10 0 59487  43302.000000  0    -860173.142   1830977.743  -6591779.365
10 0 59487  43422.000000  0    -797027.486   2697913.612  -6295098.875
10 0 59487  43542.000000  0    -705314.205   3516733.616  -5888531.087
10 0 59487  43662.000000  0    -587584.214   4272718.547  -5379090.976
10 0 59487  43782.000000  0    -447088.836   4952256.817  -4775589.942
10 0 59487  43902.000000  0    -287704.526   5543094.909  -4088495.036
10 0 59487  44022.000000  0    -113842.062   6034567.037  -3329756.927
10 0 59487  44142.000000  0      69658.296   6417798.353  -2512609.473
10 0 59487  44262.000000  0     257643.418   6685877.884  -1651343.372
10 0 59487  44382.000000  0     444773.133   6833996.139   -761056.610
10 0 59487  44502.000000  0     625652.617   6859542.589    142613.659
10 0 59487  44622.000000  0     794968.056   6762159.953   1043772.397
10 0 59487  44742.000000  0     947621.544   6543752.521   1926554.780
10 0 59487  44862.000000  0    1078860.477   6208448.886   2775413.909
10 0 59487  44982.000000  0    1184399.632   5762521.645   3575401.958
10 0 59487  45102.000000  0    1260533.220   5214263.610   4312440.122
10 0 59487  45222.000000  0    1304235.182   4573826.091   4973571.403
10 0 59487  45342.000000  0    1313240.156   3853017.591   5547190.671
10 0 59487  45462.000000  0    1286109.029   3065076.225   6023242.417
10 0 59487  45582.000000  0    1222275.437   2224419.979   6393392.822
10 0 59487  45702.000000  0    1122072.216   1346377.033   6651170.321
10 0 59487  45822.000000  0     986738.110    446902.183   6792072.521
10 0 59487  45942.000000  0     818404.381   -457713.144   6813638.918
10 0 59487  46062.000000  0     620061.357  -1351134.935   6715492.722
10 0 59487  46182.000000  0     395505.173  -2217281.728   6499347.424
10 0 59487  46302.000000  0     149265.375  -3040614.409   6168979.151
10 0 59487  46422.000000  0    -113484.807  -3806416.959   5730162.781
10 0 59487  46542.000000  0    -387033.422  -4501060.072   5190574.993
10 0 59487  46662.000000  0    -665248.758  -5112247.480   4559668.151
10 0 59487  46782.000000  0    -941711.812  -5629243.366   3848512.158
10 0 59487  46902.000000  0   -1209858.919  -6043071.310   3069602.270
10 0 59487  47022.000000  0   -1463130.592  -6346679.118   2236639.760
10 0 59487  47142.000000  0   -1695123.508  -6535068.543   1364289.576
10 0 59487  47262.000000  0   -1899743.243  -6605384.858    467916.223
10 0 59487  47382.000000  0   -2071350.785  -6556962.277   -436695.190
10 0 59487  47502.000000  0   -2204900.505  -6391325.491  -1333625.742
10 0 59487  47622.000000  0   -2296066.448  -6112147.252  -2207111.206
10 0 59487  47742.000000  0   -2341353.904  -5725163.349  -3041826.489
10 0 59487  47862.000000  0   -2338193.060  -5238046.528  -3823159.873
10 0 59487  47982.000000  0   -2285012.265  -4660243.225  -4537469.960
10 0 59487  48102.000000  0   -2181289.788  -4002779.345  -5172320.274
10 0 59487  48222.000000  0   -2027583.706  -3278040.733  -5716688.833
10 0 59487  48342.000000  0   -1825539.589  -2499533.095  -6161150.738
10 0 59487  48462.000000  0   -1577875.375  -1681625.570  -6498030.962
10 0 59487  48582.000000  0   -1288344.526   -839284.265  -6721524.888
10 0 59487  48702.000000  0    -961679.383     12199.047  -6827787.541
10 0 59487  48822.000000  0    -603514.555    857478.914  -6814991.939
10 0 59487  48942.000000  0    -220291.150   1681425.480  -6683356.859
10 0 59487  49062.000000  0     180855.165   2469387.948  -6435143.509
10 0 59487  49182.000000  0     592222.898   3207449.974  -6074623.074
10 0 59487  49302.000000  0    1005689.265   3882673.598  -5608010.985
10 0 59487  49422.000000  0    1412865.903   4483325.687  -5043369.497
10 0 59487  49542.000000  0    1805265.034   4999086.032  -4390480.739
10 0 59487  49662.000000  0    2174473.214   5421232.581  -3660687.456
10 0 59487  49782.000000  0    2512328.465   5742797.983  -2866704.413
10 0 59487  49902.000000  0    2811097.848   5958695.711  -2022403.134
10 0 59487  50022.000000  0    3063651.453   6065811.489  -1142571.509
10 0 59487  50142.000000  0    3263627.526   6063056.388   -242652.211
10 0 59487  50262.000000  0    3405584.025   5951378.986    661534.098
10 0 59487  50382.000000  0    3485133.265   5733736.381   1554073.887
10 0 59487  50502.000000  0    3499056.632   5415025.705   2419248.724
10 0 59487  50622.000000  0    3445395.012   5001977.025   3241820.934
10 0 59487  50742.000000  0    3323513.710   4503008.036   4007309.722
10 0 59487  50862.000000  0    3134140.610   3928047.769   4702250.498
10 0 59487  50982.000000  0    2879372.857   3288331.992   5314436.134
10 0 59487  51102.000000  0    2562655.210   2596175.070   5833128.323
10 0 59487  51222.000000  0    2188734.069   1864727.732   6249241.103
10 0 59487  51342.000000  0    1763584.714   1107722.439   6555495.779
10 0 59487  51462.000000  0    1294312.748    339212.194   6746541.377
10 0 59487  51582.000000  0     789033.506   -426689.711   6819041.894
10 0 59487  51702.000000  0     256731.290  -1176068.357   6771732.507
10 0 59487  51822.000000  0    -292900.721  -1895460.328   6605440.232
10 0 59487  51942.000000  0    -849637.082  -2572095.586   6323069.786
10 0 59487  52062.000000  0   -1402909.240  -3194124.518   5929554.351
10 0 59487  52182.000000  0   -1942003.311  -3750826.230   5431774.385
10 0 59487  52302.000000  0   -2456267.342  -4232797.131   4838445.492
10 0 59487  52422.000000  0   -2935324.458  -4632116.379   4159972.743
10 0 59487  52542.000000  0   -3369285.570  -4942482.926   3408271.737
10 0 59487  52662.000000  0   -3748955.435  -5159320.934   2596559.927
10 0 59487  52782.000000  0   -4066028.145  -5279851.647   1739123.359
10 0 59487  52902.000000  0   -4313269.126  -5303129.975    851061.385
10 0 59487  53022.000000  0   -4484677.783  -5230043.616    -51985.664
10 0 59487  53142.000000  0   -4575626.870  -5063275.308   -954119.982
10 0 59487  53262.000000  0   -4582974.472  -4807228.457  -1839475.873
10 0 59487  53382.000000  0   -4505144.930  -4467917.174  -2692507.729
10 0 59487  53502.000000  0   -4342177.304  -4052824.617  -3498268.878
10 0 59487  53622.000000  0   -4095740.925  -3570734.838  -4242675.586
10 0 59487  53742.000000  0   -3769118.672  -3031542.749  -4912751.816
10 0 59487  53862.000000  0   -3367158.677  -2446046.367  -5496850.582
10 0 59487  53982.000000  0   -2896196.197  -1825727.155  -5984847.892
10 0 59487  54102.000000  0   -2363948.528  -1182523.276  -6368308.234
10 0 59487  54222.000000  0   -1779383.861   -528599.833  -6640619.369
10 0 59487  54342.000000  0   -1152567.811    123878.724  -6797094.103
10 0 59487  54462.000000  0    -494492.100    762969.424  -6835041.111
10 0 59487  54582.000000  0     183114.268   1377163.729  -6753806.461
10 0 59487  54702.000000  0     867987.881   1955588.840  -6554783.883
10 0 59487  54822.000000  0    1547547.920   2488196.429  -6241395.779
10 0 59487  54942.000000  0    2209122.676   2965935.341  -5819040.410
10 0 59487  55062.000000  0    2840182.249   3380905.585  -5295007.850
10 0 59487  55182.000000  0    3428573.303   3726490.519  -4678365.319
10 0 59487  55302.000000  0    3962753.927   3997467.358  -3979812.310
10 0 59487  55422.000000  0    4432023.567   4190091.731  -3211504.807
10 0 59487  55542.000000  0    4826742.675   4302154.057  -2386850.250
10 0 59487  55662.000000  0    5138535.717   4333005.677  -1520276.978
10 0 59487  55782.000000  0    5360474.183   4283554.238   -626981.463
10 0 59487  55902.000000  0    5487232.658   4156227.503    277342.094
10 0 59487  56022.000000  0    5515215.184   3954906.948   1176783.295
10 0 59487  56142.000000  0    5442648.736   3684830.832   2055503.795
10 0 59487  56262.000000  0    5269639.554   3352469.122   2898025.395
10 0 59487  56382.000000  0    4998190.129   2965374.798   3689511.329
10 0 59487  56502.000000  0    4632177.497   2532014.162   4416034.174
10 0 59487  56622.000000  0    4177293.836   2061580.520   5064822.603
10 0 59487  56742.000000  0    3640952.970   1563799.457   5624487.246
10 0 59487  56862.000000  0    3032160.369   1048725.741   6085218.886
10 0 59487  56982.000000  0    2361354.480    526538.158   6438953.645
10 0 59487  57102.000000  0    1640223.341      7339.167   6679506.777
10 0 59487  57222.000000  0     881498.567   -499039.299   6802676.746
10 0 59487  57342.000000  0      98728.088   -983222.031   6806314.773
10 0 59487  57462.000000  0    -693966.318  -1436463.539   6690358.995
10 0 59487  57582.000000  0   -1482143.393  -1850806.035   6456834.610
10 0 59487  57702.000000  0   -2251303.841  -2219218.816   6109819.216
10 0 59487  57822.000000  0   -2987154.995  -2535717.369   5655377.549
10 0 59487  57942.000000  0   -3675879.443  -2795463.478   5101464.087
10 0 59487  58062.000000  0   -4304399.842  -2994841.645   4457788.249
10 0 59487  58182.000000  0   -4860632.359  -3131509.937   3735647.952
10 0 59487  58302.000000  0   -5333725.108  -3204424.422   2947734.291
10 0 59487  58422.000000  0   -5714277.291  -3213837.599   2107910.083
10 0 59487  58542.000000  0   -5994533.871  -3161270.672   1230963.279
10 0 59487  58662.000000  0   -6168548.662  -3049458.376    332340.054
10 0 59487  58782.000000  0   -6232312.240  -2882267.985   -572134.656
10 0 59487  58902.000000  0   -6183842.094  -2664595.461  -1466545.306
99
